[{"OBJECT_NAME":"STARLINK-2099","OBJECT_ID":"2021-005AG","EPOCH":"2026-03-09T05:25:23.086560","MEAN_MOTION":15.30188698,"ECCENTRICITY":0.00013497,"INCLINATION":53.1612,"RA_OF_ASC_NODE":15.6956,"ARG_OF_PERICENTER":92.1215,"MEAN_ANOMALY":267.9941,"EPHEMERIS_TYPE":0,"CLASSIFICATION_TYPE":"U","NORAD_CAT_ID":47379,"ELEMENT_SET_NO":999,"REV_AT_EPOCH":28365,"BSTAR":2.4152043e-5,"MEAN_MOTION_DOT":3.56e-6,"MEAN_MOTION_DDOT":0},{"OBJECT_NAME":"OBJECT BE","OBJECT_ID":"2025-313BE","EPOCH":"2026-03-09T16:43:59.380320","MEAN_MOTION":15.29801687,"ECCENTRICITY":0.00072083,"INCLINATION":97.3989,"RA_OF_ASC_NODE":145.3568,"ARG_OF_PERICENTER":335.3714,"MEAN_ANOMALY":24.7181,"EPHEMERIS_TYPE":0,"CLASSIFICATION_TYPE":"U","NORAD_CAT_ID":67482,"ELEMENT_SET_NO":999,"REV_AT_EPOCH":797,"BSTAR":0.0026504328,"MEAN_MOTION_DOT":0.00077178,"MEAN_MOTION_DDOT":0}]
